NORAD_CAT_ID,OBJECT_NAME,OBJECT_TYPE,EPOCH,MEAN_MOTION,ECCENTRICITY,INCLINATION,RA_OF_ASC_NODE,ARG_OF_PERICENTER,MEAN_ANOMALY,BSTAR,MEAN_MOTION_DOT,MEAN_MOTION_DDOT,TLE_LINE0,TLE_LINE1,TLE_LINE2,SEMIMAJOR_AXIS,PERIOD,APOGEE,PERIGEE,DECAYED
52634.0,STARLINK-3974,PAYLOAD,2023-05-15 11:22:07,15.08841231,9.39e-05,53.215,209.4802,84.9869,275.123,9.3363e-05,1.198e-05,0.0,0 STARLINK-3974,1 52634U 22052AN  23135.47369978  .00001198  00000-0  93363-4 0  9995,2 52634  53.2150 209.4802 0000939  84.9869 275.1230 15.08841231 55618,6917.877,95.437,540.391,539.092,0.0
52634.0,STARLINK-3974,PAYLOAD,2023-05-16 09:37:32,15.08828329,8.7e-05,53.2153,205.3165,92.4925,267.6167,0.00022936,3.363e-05,0.0,0 STARLINK-3974,1 52634U 22052AN  23136.40106524  .00003363  00000-0  22936-3 0  9998,2 52634  53.2153 205.3165 0000870  92.4925 267.6167 15.08828329 56135,6917.916,95.438,540.383,539.179,0.0
52634.0,STARLINK-3974,PAYLOAD,2023-05-16 11:12:54,15.08841739,9.41e-05,53.2155,205.0197,88.7139,271.3961,3.6545e-05,2.94e-06,0.0,0 STARLINK-3974,1 52634U 22052AN  23136.46729968  .00000294  00000-0  36545-4 0  9999,2 52634  53.2155 205.0197 0000941  88.7139 271.3961 15.08841739 55765,6917.875,95.437,540.391,539.089,0.0
52634.0,STARLINK-3974,PAYLOAD,2023-05-16 14:23:40,15.08843757,9.53e-05,53.2155,204.4244,91.0336,269.0766,4.9011e-05,4.92e-06,0.0,0 STARLINK-3974,1 52634U 22052AN  23136.59977751  .00000492  00000-0  49011-4 0  9990,2 52634  53.2155 204.4244 0000953  91.0336 269.0766 15.08843757 56164,6917.869,95.437,540.393,539.075,0.0
52634.0,STARLINK-3974,PAYLOAD,2023-05-17 20:36:00,15.08839052,9.42e-05,53.2153,198.7721,92.4559,267.6541,4.6854e-05,4.58e-06,0.0,0 STARLINK-3974,1 52634U 22052AN  23137.85833877  .00000458  00000-0  46854-4 0  9994,2 52634  53.2153 198.7721 0000942  92.4559 267.6541 15.08839052 55973,6917.883,95.438,540.4,539.097,0.0
52634.0,STARLINK-3974,PAYLOAD,2023-05-18 14:05:15,15.08837728,0.0001035,53.216,195.5026,96.6181,263.4929,2.6792e-05,1.39e-06,0.0,0 STARLINK-3974,1 52634U 22052AN  23138.58698126  .00000139  00000-0  26792-4 0  9996,2 52634  53.2160 195.5026 0001035  96.6181 263.4929 15.08837728 56080,6917.887,95.438,540.468,539.036,0.0
52634.0,STARLINK-3974,PAYLOAD,2023-05-19 09:09:53,15.08836453,0.0001047,53.2159,191.9342,96.2694,263.8417,8.8652e-06,-1.47e-06,0.0,0 STARLINK-3974,1 52634U 22052AN  23139.38186406 -.00000147  00000-0  88652-5 0  9992,2 52634  53.2159 191.9342 0001047  96.2694 263.8417 15.08836453 56582,6917.891,95.438,540.481,539.032,0.0
52634.0,STARLINK-3974,PAYLOAD,2023-05-19 20:17:34,15.08849472,9.55e-05,53.216,189.8537,96.8174,263.2927,-0.00014702,-2.627e-05,0.0,0 STARLINK-3974,1 52634U 22052AN  23139.84553996 -.00002627  00000-0 -14702-3 0  9994,2 52634  53.2160 189.8537 0000955  96.8174 263.2927 15.08849472 56273,6917.851,95.437,540.377,539.056,0.0
52634.0,STARLINK-3974,PAYLOAD,2023-05-20 10:36:02,15.08842189,0.0001027,53.2162,187.1774,91.2474,268.8636,8.0965e-05,1.001e-05,0.0,0 STARLINK-3974,1 52634U 22052AN  23140.44170108  .00001001  00000-0  80965-4 0  9990,2 52634  53.2162 187.1774 0001027  91.2474 268.8636 15.08842189 56740,6917.874,95.437,540.449,539.028,0.0
52634.0,STARLINK-3974,PAYLOAD,2023-05-20 20:08:21,15.08846106,0.0001038,53.2162,185.393,87.5696,272.5415,0.00011623,1.563e-05,0.0,0 STARLINK-3974,1 52634U 22052AN  23140.83913716  .00001563  00000-0  11623-3 0  9990,2 52634  53.2162 185.3930 0001038  87.5696 272.5415 15.08846106 56425,6917.862,95.437,540.445,539.009,0.0
52634.0,STARLINK-3974,PAYLOAD,2023-05-21 10:26:49,15.08849787,0.0001054,53.2161,182.7167,87.2511,272.8602,0.00014895,2.084e-05,0.0,0 STARLINK-3974,1 52634U 22052AN  23141.43529330  .00002084  00000-0  14895-3 0  9995,2 52634  53.2161 182.7167 0001054  87.2511 272.8602 15.08849787 56517,6917.85,95.437,540.445,538.986,0.0
52634.0,STARLINK-3974,PAYLOAD,2023-05-21 19:59:08,15.08839418,0.0001277,53.216,180.9333,76.2122,283.9012,5.946e-05,6.59e-06,0.0,0 STARLINK-3974,1 52634U 22052AN  23141.83274296  .00000659  00000-0  59460-4 0  9991,2 52634  53.2160 180.9333 0001277  76.2122 283.9012 15.08839418 56578,6917.882,95.438,540.631,538.864,0.0
52634.0,STARLINK-3974,PAYLOAD,2023-05-22 02:20:41,15.08835561,0.0001199,53.2153,179.7428,80.1957,279.9171,1.962e-05,2.4e-07,0.0,0 STARLINK-3974,1 52634U 22052AN  23142.09770688  .00000024  00000-0  19620-4 0  9996,2 52634  53.2153 179.7428 0001199  80.1957 279.9171 15.08835561 56996,6917.894,95.438,540.588,538.93,0.0
52634.0,STARLINK-3974,PAYLOAD,2023-05-22 08:42:14,15.08832216,0.0001369,53.2137,178.5538,75.766,284.3484,-7.5702e-05,-1.492e-05,0.0,0 STARLINK-3974,1 52634U 22052AN  23142.36266669 -.00001492  00000-0 -75702-4 0  9990,2 52634  53.2137 178.5538 0001369  75.7660 284.3484 15.08832216 56651,6917.904,95.438,540.716,538.822,0.0
52634.0,STARLINK-3974,PAYLOAD,2023-05-22 19:49:56,15.08838562,0.0001092,53.2154,176.4707,82.2345,277.8771,-1.2323e-05,-4.84e-06,0.0,0 STARLINK-3974,1 52634U 22052AN  23142.82634757 -.00000484  00000-0 -12323-4 0  9998,2 52634  53.2154 176.4707 0001092  82.2345 277.8771 15.08838562 56725,6917.885,95.438,540.505,538.994,0.0
52634.0,STARLINK-3974,PAYLOAD,2023-05-23 11:43:47,15.08844252,0.0001026,53.2157,173.4971,88.7047,271.4063,2.5946e-05,1.25e-06,0.0,0 STARLINK-3974,1 52634U 22052AN  23143.48874269  .00000125  00000-0  25946-4 0  9990,2 52634  53.2157 173.4971 0001026  88.7047 271.4063 15.08844252 57206,6917.867,95.437,540.442,539.023,0.0
52634.0,STARLINK-3974,PAYLOAD,2023-05-24 06:48:25,15.08836504,0.000107,53.2156,169.9289,74.8817,285.2294,0.00019425,2.805e-05,0.0,0 STARLINK-3974,1 52634U 22052AN  23144.28362687  .00002805  00000-0  19425-3 0  9996,2 52634  53.2156 169.9289 0001070  74.8817 285.2294 15.08836504 57320,6917.891,95.438,540.496,539.016,0.0
52634.0,STARLINK-3974,PAYLOAD,2023-05-24 08:23:48,15.08836857,0.0001071,53.2156,169.6316,73.4187,286.6923,0.00019241,2.775e-05,0.0,0 STARLINK-3974,1 52634U 22052AN  23144.34986702  .00002775  00000-0  19241-3 0  9995,2 52634  53.2156 169.6316 0001071  73.4187 286.6923 15.08836857 56957,6917.89,95.438,540.496,539.014,0.0
52634.0,STARLINK-3974,PAYLOAD,2023-05-26 01:43:50,15.08838404,0.0001165,53.2162,161.8999,76.2283,283.8839,5.3535e-05,5.64e-06,0.0,0 STARLINK-3974,1 52634U 22052AN  23146.07210960  .00000564  00000-0  53535-4 0  9992,2 52634  53.2162 161.8999 0001165  76.2283 283.8839 15.08838404 57593,6917.885,95.438,540.556,538.944,0.0
52634.0,STARLINK-3974,PAYLOAD,2023-05-26 08:05:22,15.08838668,0.0001152,53.216,160.7106,74.3317,285.7802,4.4147e-05,4.15e-06,0.0,0 STARLINK-3974,1 52634U 22052AN  23146.33706950  .00000415  00000-0  44147-4 0  9994,2 52634  53.2160 160.7106 0001152  74.3317 285.7802 15.08838668 57258,6917.884,95.438,540.546,538.953,0.0
52634.0,STARLINK-3974,PAYLOAD,2023-05-27 09:31:33,15.08837243,0.0001112,53.2155,155.9535,71.3721,288.7392,3.4075e-05,2.55e-06,0.0,0 STARLINK-3974,1 52634U 22052AN  23147.39691180  .00000255  00000-0  34075-4 0  9990,2 52634  53.2155 155.9535 0001112  71.3721 288.7392 15.08837243 57790,6917.889,95.438,540.523,538.985,0.0
52634.0,STARLINK-3974,PAYLOAD,2023-05-27 17:28:28,15.08837886,0.0001118,53.2155,154.4666,70.3495,289.7618,4.7057e-05,4.61e-06,0.0,0 STARLINK-3974,1 52634U 22052AN  23147.72811160  .00000461  00000-0  47057-4 0  9992,2 52634  53.2155 154.4666 0001118  70.3495 289.7618 15.08837886 57461,6917.887,95.438,540.525,538.978,0.0
52634.0,STARLINK-3974,PAYLOAD,2023-05-28 06:11:33,15.0884073,0.0001121,53.2155,152.0877,70.777,289.3343,7.0107e-05,8.28e-06,0.0,0 STARLINK-3974,1 52634U 22052AN  23148.25803021  .00000828  00000-0  70107-4 0  9997,2 52634  53.2155 152.0877 0001121  70.7770 289.3343 15.08840730 57545,6917.878,95.438,540.519,538.968,0.0
52634.0,STARLINK-3974,PAYLOAD,2023-05-28 09:22:20,15.08841482,0.0001129,53.2155,151.493,71.1956,288.9159,7.3974e-05,8.9e-06,0.0,0 STARLINK-3974,1 52634U 22052AN  23148.39050965  .00000890  00000-0  73974-4 0  9997,2 52634  53.2155 151.4930 0001129  71.1956 288.9159 15.08841482 57564,6917.876,95.437,540.522,538.96,0.0
52634.0,STARLINK-3974,PAYLOAD,2023-05-28 23:40:48,15.08840982,0.0001132,53.2156,148.8165,71.4114,288.7001,8.1868e-05,1.015e-05,0.0,0 STARLINK-3974,1 52634U 22052AN  23148.98667000  .00001015  00000-0  81868-4 0  9997,2 52634  53.2156 148.8165 0001132  71.4114 288.7001 15.08840982 58039,6917.877,95.437,540.525,538.959,0.0
52634.0,STARLINK-3974,PAYLOAD,2023-05-29 07:37:43,15.08842932,0.0001147,53.2157,147.3298,71.8138,288.2979,9.1352e-05,1.166e-05,0.0,0 STARLINK-3974,1 52634U 22052AN  23149.31786826  .00001166  00000-0  91352-4 0  9999,2 52634  53.2157 147.3298 0001147  71.8138 288.2979 15.08842932 57706,6917.871,95.437,540.53,538.943,0.0
52634.0,STARLINK-3974,PAYLOAD,2023-05-29 17:10:02,15.08840957,0.0001167,53.2158,145.5458,71.5587,288.5532,6.4135e-05,7.33e-06,0.0,0 STARLINK-3974,1 52634U 22052AN  23149.71530990  .00000733  00000-0  64135-4 0  9990,2 52634  53.2158 145.5458 0001167  71.5587 288.5532 15.08840957 57761,6917.877,95.437,540.55,538.935,0.0
52634.0,STARLINK-3974,PAYLOAD,2023-05-30 05:53:07,15.08840119,0.0001198,53.2159,143.1668,72.4679,287.6444,3.2626e-05,2.31e-06,0.0,0 STARLINK-3974,1 52634U 22052AN  23150.24523108  .00000231  00000-0  32626-4 0  9996,2 52634  53.2159 143.1668 0001198  72.4679 287.6444 15.08840119 58229,6917.88,95.438,540.574,538.916,0.0
52634.0,STARLINK-3974,PAYLOAD,2023-05-31 08:54:40,15.08843731,0.0001187,53.2158,138.1106,77.6198,282.4927,5.2444e-05,5.47e-06,0.0,0 STARLINK-3974,1 52634U 22052AN  23151.37130719  .00000547  00000-0  52444-4 0  9993,2 52634  53.2158 138.1106 0001187  77.6198 282.4927 15.08843731 58390,6917.869,95.437,540.555,538.913,0.0
52634.0,STARLINK-3974,PAYLOAD,2023-06-01 02:23:55,15.08838351,0.0001211,53.2162,134.838,83.0326,277.0804,3.7071e-05,3.02e-06,0.0,0 STARLINK-3974,1 52634U 22052AN  23152.09995086  .00000302  00000-0  37071-4 0  9997,2 52634  53.2162 134.8380 0001211  83.0326 277.0804 15.08838351 58503,6917.885,95.438,540.588,538.913,0.0
